[{"OBJECT_NAME":"STARLINK-3700","OBJECT_ID":"2022-025A","EPOCH":"2026-03-09T03:57:26.961696","MEAN_MOTION":15.29350924,"ECCENTRICITY":0.00012959,"INCLINATION":53.1593,"RA_OF_ASC_NODE":15.8755,"ARG_OF_PERICENTER":94.7722,"MEAN_ANOMALY":265.3427,"EPHEMERIS_TYPE":0,"CLASSIFICATION_TYPE":"U","NORAD_CAT_ID":51956,"ELEMENT_SET_NO":999,"REV_AT_EPOCH":22109,"BSTAR":-1.4216439e-5,"MEAN_MOTION_DOT":-7.66e-6,"MEAN_MOTION_DDOT":0},{"OBJECT_NAME":"GEOSCAN 3 (RS92S3)","OBJECT_ID":"2025-155T","EPOCH":"2026-03-09T22:52:10.587648","MEAN_MOTION":15.31696739,"ECCENTRICITY":0.00068078,"INCLINATION":97.4455,"RA_OF_ASC_NODE":37.9971,"ARG_OF_PERICENTER":154.1387,"MEAN_ANOMALY":206.0196,"EPHEMERIS_TYPE":0,"CLASSIFICATION_TYPE":"U","NORAD_CAT_ID":64893,"ELEMENT_SET_NO":999,"REV_AT_EPOCH":6564,"BSTAR":0.00078414081,"MEAN_MOTION_DOT":0.00023985,"MEAN_MOTION_DDOT":0}]
